{
  "type": "FeatureCollection",
  "features": [
    {
      "type": "Feature",
      "properties": {
        "norad_id": 32376,
        "name": "COSMO-SKYMED 2",
        "group": "resource",
        "lat": 81.89819627493873,
        "lon": 81.2714513264915,
        "alt_km": 613.9872685291948,
        "timestamp": "2025-12-02T10:50:46.929849+00:00",
        "meta_object_name": "COSMO-SKYMED 2",
        "meta_object_id": "2007-059A",
        "meta_epoch": "2025-12-02T03:58:09.751296",
        "meta_mean_motion": 14.82172582,
        "meta_eccentricity": 0.0001469,
        "meta_inclination": 97.8807,
        "meta_ra_of_asc_node": 157.6481,
        "meta_arg_of_pericenter": 84.7683,
        "meta_mean_anomaly": 275.3697,
        "meta_ephemeris_type": 0,
        "meta_classification_type": "U",
        "meta_norad_cat_id": 32376,
        "meta_element_set_no": 999,
        "meta_rev_at_epoch": 97281,
        "meta_bstar": 9.8914e-05,
        "meta_mean_motion_dot": 7.36e-06,
        "meta_mean_motion_ddot": 0,
        "tle_line1": "1 32376U 07059A   25336.16539064  .00000736  00000+0  98914-4 0  9995",
        "tle_line2": "2 32376  97.8807 157.6481 0001469  84.7683 275.3697 14.82172582972816"
      },
      "geometry": {
        "type": "Point",
        "coordinates": [
          81.2714513264915,
          81.89819627493873
        ]
      }
    },
    {
      "type": "Feature",
      "properties": {
        "norad_id": 32382,
        "name": "RADARSAT-2",
        "group": "resource",
        "lat": 13.702242717249812,
        "lon": 163.30102855290457,
        "alt_km": 792.596563808761,
        "timestamp": "2025-12-02T10:50:46.929860+00:00",
        "meta_object_name": "RADARSAT-2",
        "meta_object_id": "2007-061A",
        "meta_epoch": "2025-12-02T03:21:19.304928",
        "meta_mean_motion": 14.29983048,
        "meta_eccentricity": 0.0001081,
        "meta_inclination": 98.58,
        "meta_ra_of_asc_node": 340.8839,
        "meta_arg_of_pericenter": 90.2656,
        "meta_mean_anomaly": 269.8651,
        "meta_ephemeris_type": 0,
        "meta_classification_type": "U",
        "meta_norad_cat_id": 32382,
        "meta_element_set_no": 999,
        "meta_rev_at_epoch": 93779,
        "meta_bstar": 6.3118e-05,
        "meta_mean_motion_dot": 1.19e-06,
        "meta_mean_motion_ddot": 0,
        "tle_line1": "1 32382U 07061A   25336.13980677  .00000119  00000+0  63118-4 0  9995",
        "tle_line2": "2 32382  98.5800 340.8839 0001081  90.2656 269.8651 14.29983048937793"
      },
      "geometry": {
        "type": "Point",
        "coordinates": [
          163.30102855290457,
          13.702242717249812
        ]
      }
    },
    {
      "type": "Feature",
      "properties": {
        "norad_id": 32783,
        "name": "CARTOSAT-2A",
        "group": "resource",
        "lat": -12.621476980712073,
        "lon": 28.353972155450634,
        "alt_km": 631.5388637862206,
        "timestamp": "2025-12-02T10:50:46.929870+00:00",
        "meta_object_name": "CARTOSAT-2A",
        "meta_object_id": "2008-021A",
        "meta_epoch": "2025-12-02T04:24:30.559392",
        "meta_mean_motion": 14.78903811,
        "meta_eccentricity": 0.0012565,
        "meta_inclination": 97.7946,
        "meta_ra_of_asc_node": 26.3364,
        "meta_arg_of_pericenter": 37.5342,
        "meta_mean_anomaly": 322.6745,
        "meta_ephemeris_type": 0,
        "meta_classification_type": "U",
        "meta_norad_cat_id": 32783,
        "meta_element_set_no": 999,
        "meta_rev_at_epoch": 94968,
        "meta_bstar": 0.00015642,
        "meta_mean_motion_dot": 1.104e-05,
        "meta_mean_motion_ddot": 0,
        "tle_line1": "1 32783U 08021A   25336.18368703  .00001104  00000+0  15642-3 0  9995",
        "tle_line2": "2 32783  97.7946  26.3364 0012565  37.5342 322.6745 14.78903811949681"
      },
      "geometry": {
        "type": "Point",
        "coordinates": [
          28.353972155450634,
          -12.621476980712073
        ]
      }
    },
    {
      "type": "Feature",
      "properties": {
        "norad_id": 33320,
        "name": "HUANJING 1A (HJ-1A)",
        "group": "resource",
        "lat": 47.8232146142715,
        "lon": -43.35431481816119,
        "alt_km": 600.773668287864,
        "timestamp": "2025-12-02T10:50:46.929881+00:00",
        "meta_object_name": "HUANJING 1A (HJ-1A)",
        "meta_object_id": "2008-041A",
        "meta_epoch": "2025-12-02T05:46:21.713376",
        "meta_mean_motion": 14.83339261,
        "meta_eccentricity": 0.002068,
        "meta_inclination": 97.6533,
        "meta_ra_of_asc_node": 324.9783,
        "meta_arg_of_pericenter": 66.8541,
        "meta_mean_anomaly": 293.485,
        "meta_ephemeris_type": 0,
        "meta_classification_type": "U",
        "meta_norad_cat_id": 33320,
        "meta_element_set_no": 999,
        "meta_rev_at_epoch": 92920,
        "meta_bstar": 0.00022129,
        "meta_mean_motion_dot": 1.769e-05,
        "meta_mean_motion_ddot": 0,
        "tle_line1": "1 33320U 08041A   25336.24052909  .00001769  00000+0  22129-3 0  9995",
        "tle_line2": "2 33320  97.6533 324.9783 0020680  66.8541 293.4850 14.83339261929201"
      },
      "geometry": {
        "type": "Point",
        "coordinates": [
          -43.35431481816119,
          47.8232146142715
        ]
      }
    },
    {
      "type": "Feature",
      "properties": {
        "norad_id": 33321,
        "name": "HUANJING 1B (HJ-1B)",
        "group": "resource",
        "lat": -68.06817967842383,
        "lon": -11.623171834181372,
        "alt_km": 654.5154005350114,
        "timestamp": "2025-12-02T10:50:46.929892+00:00",
        "meta_object_name": "HUANJING 1B (HJ-1B)",
        "meta_object_id": "2008-041B",
        "meta_epoch": "2025-12-02T04:40:56.272800",
        "meta_mean_motion": 14.82776334,
        "meta_eccentricity": 0.0038134,
        "meta_inclination": 97.6395,
        "meta_ra_of_asc_node": 328.6592,
        "meta_arg_of_pericenter": 109.0893,
        "meta_mean_anomaly": 251.4457,
        "meta_ephemeris_type": 0,
        "meta_classification_type": "U",
        "meta_norad_cat_id": 33321,
        "meta_element_set_no": 999,
        "meta_rev_at_epoch": 92921,
        "meta_bstar": 0.00018004,
        "meta_mean_motion_dot": 1.422e-05,
        "meta_mean_motion_ddot": 0,
        "tle_line1": "1 33321U 08041B   25336.19509575  .00001422  00000+0  18004-3 0  9999",
        "tle_line2": "2 33321  97.6395 328.6592 0038134 109.0893 251.4457 14.82776334929213"
      },
      "geometry": {
        "type": "Point",
        "coordinates": [
          -11.623171834181372,
          -68.06817967842383
        ]
      }
    },
    {
      "type": "Feature",
      "properties": {
        "norad_id": 33331,
        "name": "GEOEYE 1",
        "group": "resource",
        "lat": -41.65833897548603,
        "lon": -139.4426387047334,
        "alt_km": 684.6896949011652,
        "timestamp": "2025-12-02T10:50:46.929903+00:00",
        "meta_object_name": "GEOEYE 1",
        "meta_object_id": "2008-042A",
        "meta_epoch": "2025-12-02T04:55:01.111008",
        "meta_mean_motion": 14.64788259,
        "meta_eccentricity": 0.0003041,
        "meta_inclination": 98.1265,
        "meta_ra_of_asc_node": 47.6167,
        "meta_arg_of_pericenter": 322.0999,
        "meta_mean_anomaly": 37.9989,
        "meta_ephemeris_type": 0,
        "meta_classification_type": "U",
        "meta_norad_cat_id": 33331,
        "meta_element_set_no": 999,
        "meta_rev_at_epoch": 92131,
        "meta_bstar": 0.00014846,
        "meta_mean_motion_dot": 7.44e-06,
        "meta_mean_motion_ddot": 0,
        "tle_line1": "1 33331U 08042A   25336.20487397  .00000744  00000+0  14846-3 0  9996",
        "tle_line2": "2 33331  98.1265  47.6167 0003041 322.0999  37.9989 14.64788259921314"
      },
      "geometry": {
        "type": "Point",
        "coordinates": [
          -139.4426387047334,
          -41.65833897548603
        ]
      }
    },
    {
      "type": "Feature",
      "properties": {
        "norad_id": 33396,
        "name": "THEOS",
        "group": "resource",
        "lat": -66.48387715628989,
        "lon": 55.16592315817608,
        "alt_km": 833.0179386434593,
        "timestamp": "2025-12-02T10:50:46.929913+00:00",
        "meta_object_name": "THEOS",
        "meta_object_id": "2008-049A",
        "meta_epoch": "2025-12-02T04:24:08.381376",
        "meta_mean_motion": 14.20092664,
        "meta_eccentricity": 0.0001085,
        "meta_inclination": 98.5882,
        "meta_ra_of_asc_node": 34.5838,
        "meta_arg_of_pericenter": 100.4612,
        "meta_mean_anomaly": 259.6687,
        "meta_ephemeris_type": 0,
        "meta_classification_type": "U",
        "meta_norad_cat_id": 33396,
        "meta_element_set_no": 999,
        "meta_rev_at_epoch": 89000,
        "meta_bstar": 5.9998e-05,
        "meta_mean_motion_dot": 8.5e-07,
        "meta_mean_motion_ddot": 0,
        "tle_line1": "1 33396U 08049A   25336.18343034  .00000085  00000+0  59998-4 0  9996",
        "tle_line2": "2 33396  98.5882  34.5838 0001085 100.4612 259.6687 14.20092664890009"
      },
      "geometry": {
        "type": "Point",
        "coordinates": [
          55.16592315817608,
          -66.48387715628989
        ]
      }
    }
  ]
}